NORAD_CAT_ID,OBJECT_NAME,OBJECT_TYPE,EPOCH,MEAN_MOTION,ECCENTRICITY,INCLINATION,RA_OF_ASC_NODE,ARG_OF_PERICENTER,MEAN_ANOMALY,BSTAR,MEAN_MOTION_DOT,MEAN_MOTION_DDOT,TLE_LINE0,TLE_LINE1,TLE_LINE2,SEMIMAJOR_AXIS,PERIOD,APOGEE,PERIGEE,DECAYED
53639.0,STARLINK-4422,PAYLOAD,2022-11-05 22:00:01,15.50722703,0.0001250999999999,53.2163,303.3355,53.39100000000001,245.2171,-0.015618,-0.00835272,0.0,0 STARLINK-4422,1 53639U 22104BD  22309.91668981 -.00835272  00000-0 -15618-1 0  9990,2 53639  53.2163 303.3355 0001251  53.3910 245.2171 15.50722703 11006,6792.752,92.86,415.467,413.767,0.0
53639.0,STARLINK-4422,PAYLOAD,2022-11-06 06:00:00,15.50007262,0.0001139,53.2166,301.7424,79.6047,280.4991,-0.0034062,-0.00189975,0.0,0 STARLINK-4422,1 53639U 22104BD  22310.25001157 -.00189975  00000-0 -34062-2 0  9992,2 53639  53.2166 301.7424 0001139  79.6047 280.4991 15.50007262 11057,6794.842,92.903,417.481,415.9330000000001,0.0
53639.0,STARLINK-4422,PAYLOAD,2022-11-06 14:00:01,15.49870141,0.0001515,53.2128,300.1535,58.6726,2.2001,2.4126e-05,9.17e-06,0.0,0 STARLINK-4422,1 53639U 22104BD  22310.58334491  .00000917  00000-0  24126-4 0  9996,2 53639  53.2128 300.1535 0001515  58.6726   2.2001 15.49870141 11111,6795.243,92.911,418.137,416.078,0.0
53639.0,STARLINK-4422,PAYLOAD,2022-11-07 06:00:00,15.49895159,0.000164,53.2135,296.9672,61.9431,120.7424,0.00015247,8.214e-05,0.0,0 STARLINK-4422,1 53639U 22104BD  22311.25001157  .00008214  00000-0  15247-3 0  9992,2 53639  53.2135 296.9672 0001640  61.9431 120.7424 15.49895159 11214,6795.169,92.91,418.149,415.92,0.0
53639.0,STARLINK-4422,PAYLOAD,2022-11-07 22:00:00,15.49913081,0.0001539,53.2132,293.7789,71.8772,232.6922,0.0010107999999999,0.00057396,0.0,0 STARLINK-4422,1 53639U 22104BD  22311.91667824  .00057396  00000-0  10108-2 0  9999,2 53639  53.2132 293.7789 0001539  71.8772 232.6922 15.49913081  1300,6795.1169999999975,92.908,418.028,415.936,0.0
53639.0,STARLINK-4422,PAYLOAD,2022-11-08 14:00:01,15.50017585,0.0001477,53.213,290.5933,64.4261,2.1413,-0.001965,-0.00110931,0.0,0 STARLINK-4422,1 53639U 22104BD  22312.58334491 -.00110931  00000-0 -19650-2 0  9992,2 53639  53.2130 290.5933 0001477  64.4261   2.1413 15.50017585  1307,6794.812,92.902,417.68,415.673,0.0
53639.0,STARLINK-4422,PAYLOAD,2022-11-08 22:00:00,15.49992442,0.0001415,53.2146,288.9967,70.7319,56.8418,-0.0030259,-0.00169175,0.0,0 STARLINK-4422,1 53639U 22104BD  22312.91667824 -.00169175  00000-0 -30259-2 0  9990,2 53639  53.2146 288.9967 0001415  70.7319  56.8418 15.49992442 11470,6794.885,92.904,417.712,415.789,0.0
53639.0,STARLINK-4422,PAYLOAD,2022-11-09 14:00:01,15.49851513,0.0001313,53.2146,285.8124,61.3783,188.0144,-0.00013215,-7.935e-05,0.0,0 STARLINK-4422,1 53639U 22104BD  22313.58334491 -.00007935  00000-0 -13215-3 0  9994,2 53639  53.2146 285.8124 0001313  61.3783 188.0144 15.49851513  1307,6795.297,92.912,418.054,416.27,0.0
53639.0,STARLINK-4422,PAYLOAD,2022-11-09 22:00:01,15.50005854,0.0001304,53.216,284.2156,67.311,243.1246,-0.014401,-0.00757168,0.0,0 STARLINK-4422,1 53639U 22104BD  22313.91668981 -.00757168  00000-0 -14401-1 0  9991,2 53639  53.2160 284.2156 0001304  67.3110 243.1246 15.50005854 11624,6794.846,92.903,417.597,415.825,0.0
53639.0,STARLINK-4422,PAYLOAD,2022-11-10 14:00:01,15.488617800000002,0.000131,53.2169,281.0326,51.5599,19.6883,-0.021893,-0.0108531,0.0,0 STARLINK-4422,1 53639U 22104BD  22314.58334491 -.01085310  00000-0 -21893-1 0  9998,2 53639  53.2169 281.0326 0001310  51.5599  19.6883 15.48861780  1302,6798.191999999999,92.971,420.947,419.166,0.0
53639.0,STARLINK-4422,PAYLOAD,2022-11-10 16:00:00,15.48691181,0.0001348,53.2174,280.6342,63.6727,112.4583,-0.023046,-0.01147444,0.0,0 STARLINK-4422,1 53639U 22104BD  22314.66667824 -.01147444  00000-0 -23046-1 0  9995,2 53639  53.2174 280.6342 0001348  63.6727 112.4583 15.48691181 11743,6798.691,92.982,421.472,419.639,0.0
53639.0,STARLINK-4422,PAYLOAD,2022-11-10 22:00:00,15.48107594,0.0001438,53.2169,279.442,54.7311,75.7115,-0.024321,-0.01182955,0.0,0 STARLINK-4422,1 53639U 22104BD  22314.91667824 -.01182955  00000-0 -24321-1 0  9996,2 53639  53.2169 279.4420 0001438  54.7311  75.7115 15.48107594  1303,6800.399,93.017,423.242,421.286,0.0
53639.0,STARLINK-4422,PAYLOAD,2022-11-11 14:00:01,15.4645517,0.0001312,53.217,276.269,62.877,183.0903,-0.025016,-0.01151361,0.0,0 STARLINK-4422,1 53639U 22104BD  22315.58334491 -.01151361  00000-0 -25016-1 0  9990,2 53639  53.2170 276.2690 0001312  62.8770 183.0903 15.46455170 11885,6805.243,93.116,428.001,426.215,0.0
53639.0,STARLINK-4422,PAYLOAD,2022-11-11 22:00:00,15.4567443,0.0001181,53.2167,274.6847,65.426,236.812,-0.026691,-0.01191754,0.0,0 STARLINK-4422,1 53639U 22104BD  22315.91667824 -.01191754  00000-0 -26691-1 0  9996,2 53639  53.2167 274.6847 0001181  65.4260 236.8120 15.45674430  1309,6807.534000000002,93.163,430.203,428.595,0.0
53639.0,STARLINK-4422,PAYLOAD,2022-11-12 14:00:01,15.44017395,0.0001303,53.2168,271.5234,55.9552,355.9432,-0.027295,-0.01154773,0.0,0 STARLINK-4422,1 53639U 22104BD  22316.58334491 -.01154773  00000-0 -27295-1 0  9992,2 53639  53.2168 271.5234 0001303  55.9552 355.9432 15.44017395 12042,6812.404,93.263,435.156,433.381,0.0
53639.0,STARLINK-4422,PAYLOAD,2022-11-12 22:00:00,15.43221191,0.000135,53.2165,269.9446,59.54600000000001,45.6985,-0.028625,-0.01176583,0.0,0 STARLINK-4422,1 53639U 22104BD  22316.91667824 -.01176583  00000-0 -28625-1 0  9999,2 53639  53.2165 269.9446 0001350  59.5460  45.6985 15.43221191  1308,6814.746999999999,93.311,437.532,435.692,0.0
53639.0,STARLINK-4422,PAYLOAD,2022-11-13 14:00:01,15.41621731,0.0001494,53.2169,266.7953,63.4476,145.5596,-0.031265,-0.01213863,0.0,0 STARLINK-4422,1 53639U 22104BD  22317.58334491 -.01213863  00000-0 -31265-1 0  9991,2 53639  53.2169 266.7953 0001494  63.4476 145.5596 15.41621731  1300,6819.46,93.408,442.343,440.306,0.0
53639.0,STARLINK-4422,PAYLOAD,2022-11-13 22:00:00,15.40766119,0.0001276,53.2166,265.2222,66.0368,193.4139,-0.030544,-0.01157607,0.0,0 STARLINK-4422,1 53639U 22104BD  22317.91667824 -.01157607  00000-0 -30544-1 0  9999,2 53639  53.2166 265.2222 0001276  66.0368 193.4139 15.40766119  1301,6821.984,93.46,444.719,442.978,0.0
53639.0,STARLINK-4422,PAYLOAD,2022-11-14 14:00:01,15.39127228,0.0001209,53.2175,262.0835,56.6994,300.6674,-0.031813,-0.0114317,0.0,0 STARLINK-4422,1 53639U 22104BD  22318.58334491 -.01143170  00000-0 -31813-1 0  9994,2 53639  53.2175 262.0835 0001209  56.6994 300.6674 15.39127228 12344,6826.826,93.56,449.516,447.866,0.0
53639.0,STARLINK-4422,PAYLOAD,2022-11-14 22:00:00,15.38312772,0.0001296999999999,53.2175,260.517,55.9272,348.92800000000005,-0.032616,-0.01141215,0.0,0 STARLINK-4422,1 53639U 22104BD  22318.91667824 -.01141215  00000-0 -32616-1 0  9990,2 53639  53.2175 260.5170 0001297  55.9272 348.9280 15.38312772  1308,6829.235,93.609,451.986,450.215,0.0
53639.0,STARLINK-4422,PAYLOAD,2022-11-15 14:00:01,15.36683718,0.0001329,53.2176,257.39,67.3146,69.5842,-0.034309,-0.01138503,0.0,0 STARLINK-4422,1 53639U 22104BD  22319.58334491 -.01138503  00000-0 -34309-1 0  9992,2 53639  53.2176 257.3900 0001329  67.3146  69.5842 15.36683718  1306,6834.061,93.708,456.834,455.018,0.0
53639.0,STARLINK-4422,PAYLOAD,2022-11-15 16:00:00,15.36479034,0.0001294,53.2175,256.9992,75.9002,162.2295,-0.034462,-0.01136211,0.0,0 STARLINK-4422,1 53639U 22104BD  22319.66667824 -.01136211  00000-0 -34462-1 0  9994,2 53639  53.2175 256.9992 0001294  75.9002 162.2295 15.36479034 12510,6834.668000000002,93.721,457.417,455.648,0.0
53639.0,STARLINK-4422,PAYLOAD,2022-11-15 22:00:00,15.35869748,0.0001395999999999,53.2178,255.8295,71.9128,109.5406,-0.035205,-0.01137899,0.0,0 STARLINK-4422,1 53639U 22104BD  22319.91667824 -.01137899  00000-0 -35205-1 0  9991,2 53639  53.2178 255.8295 0001396  71.9128 109.5406 15.35869748  1302,6836.475,93.758,459.295,457.386,0.0
53639.0,STARLINK-4422,PAYLOAD,2022-11-16 14:00:01,15.34243112,0.0001257,53.2176,252.7137,76.9498,190.7432,-0.037137,-0.01139044,0.0,0 STARLINK-4422,1 53639U 22104BD  22320.58335648 -.01139044  00000-0 -37137-1 0  9992,2 53639  53.2176 252.7137 0001257  76.9498 190.7432 15.34243112 12653,6841.307,93.857,464.032,462.312,0.0
53639.0,STARLINK-4422,PAYLOAD,2022-11-16 22:00:08,15.3342914,0.0001212,53.2177,251.1588,76.3678,233.3295,-0.038097,-0.01138575,0.0,0 STARLINK-4422,1 53639U 22104BD  22320.91675926 -.01138575  00000-0 -38097-1 0  9999,2 53639  53.2177 251.1588 0001212  76.3678 233.3295 15.33429140  1309,6843.727,93.907,466.422,464.763,0.0
53639.0,STARLINK-4422,PAYLOAD,2022-11-17 14:00:01,15.31849288,0.0001354,53.2169,248.0555,55.747,333.7881,-0.042545,-0.01219778,0.0,0 STARLINK-4422,1 53639U 22104BD  22321.58334491 -.01219778  00000-0 -42545-1 0  9990,2 53639  53.2169 248.0555 0001354  55.7470 333.7881 15.31849288 12818,6848.432,94.004,471.224,469.37,0.0
53639.0,STARLINK-4422,PAYLOAD,2022-11-17 22:00:00,15.30998906,0.0001281999999999,53.2167,246.5064,57.9425,10.2989,-0.041768,-0.01154571,0.0,0 STARLINK-4422,1 53639U 22104BD  22321.91667824 -.01154571  00000-0 -41768-1 0  9991,2 53639  53.2167 246.5064 0001282  57.9425  10.2989 15.30998906  1307,6850.968000000003,94.056,473.711,471.954,0.0
53639.0,STARLINK-4422,PAYLOAD,2022-11-18 06:00:00,15.30170307,0.0001460999999999,53.2174,244.9604,53.5799,52.3767,-0.041937,-0.01131808,0.0,0 STARLINK-4422,1 53639U 22104BD  22322.25001157 -.01131808  00000-0 -41937-1 0  9996,2 53639  53.2174 244.9604 0001461  53.5799  52.3767 15.30170307 12919,6853.441,94.107,476.307,474.304,0.0
53639.0,STARLINK-4422,PAYLOAD,2022-11-18 14:00:01,15.29395362,0.0001486999999999,53.2168,243.4141,58.3642,84.306,-0.045158,-0.01200805,0.0,0 STARLINK-4422,1 53639U 22104BD  22322.58334491 -.01200805  00000-0 -45158-1 0  9995,2 53639  53.2168 243.4141 0001487  58.3642  84.3060 15.29395362  1300,6855.755999999999,94.155,478.64,476.601,0.0
